start=new Date('2023-02-20T00:00:00.000Z').valueOf();
sats=[{"MEAN_MOTION_DDOT":"0.0000000000000","COUNTRY_CODE":"US","FILE":"3811901","RCS_SIZE":"LARGE","REF_FRAME":"TEME","NORAD_CAT_ID":"48671","EPHEMERIS_TYPE":"0","ECCENTRICITY":"0.00016540","APOAPSIS":"548.391","MEAN_ELEMENT_THEORY":"SGP4","INCLINATION":"53.0527","OBJECT_NAME":"STARLINK-2745","TLE_LINE2":"2 48671  53.0527  72.1006 0001654  91.0279 269.0900 15.06389691 96795","DECAY_DATE":null,"TLE_LINE1":"1 48671U 21044AK  23050.79337782  .00014277  00000-0  97566-3 0  9990","OBJECT_TYPE":"PAYLOAD","CLASSIFICATION_TYPE":"U","SEMIMAJOR_AXIS":"6925.380","SITE":"AFETR","CENTER_NAME":"EARTH","OBJECT_ID":"2021-044AK","PERIOD":"95.593","RA_OF_ASC_NODE":"72.1006","MEAN_MOTION_DOT":"0.00014277","ELEMENT_SET_NO":"999","PERIAPSIS":"546.100","REV_AT_EPOCH":"9679","GP_ID":"226056622","TIME_SYSTEM":"UTC","BSTAR":"0.00097566000000","MEAN_ANOMALY":"269.0900","EPOCH":"2023-02-19T19:02:27.843648","LAUNCH_DATE":"2021-05-26","MEAN_MOTION":"15.06389691","ARG_OF_PERICENTER":"91.0279"},{"CENTER_NAME":"EARTH","SITE":"AFETR","CLASSIFICATION_TYPE":"U","SEMIMAJOR_AXIS":"6925.343","TLE_LINE2":"2 48672  53.0524  72.1072 0002156  86.5200 273.6036 15.06401670 96857","DECAY_DATE":null,"TLE_LINE1":"1 48672U 21044AL  23050.78969175  .00002882  00000-0  21229-3 0  9999","OBJECT_TYPE":"PAYLOAD","MEAN_ELEMENT_THEORY":"SGP4","INCLINATION":"53.0524","OBJECT_NAME":"STARLINK-2705","ECCENTRICITY":"0.00021560","APOAPSIS":"548.702","FILE":"3811995","RCS_SIZE":"LARGE","NORAD_CAT_ID":"48672","REF_FRAME":"TEME","EPHEMERIS_TYPE":"0","MEAN_MOTION_DDOT":"0.0000000000000","COUNTRY_CODE":"US","ARG_OF_PERICENTER":"86.5200","EPOCH":"2023-02-19T18:57:09.367200","LAUNCH_DATE":"2021-05-26","MEAN_MOTION":"15.06401670","BSTAR":"0.00021229000000","MEAN_ANOMALY":"273.6036","TIME_SYSTEM":"UTC","GP_ID":"226058558","MEAN_MOTION_DOT":"0.00002882","PERIAPSIS":"545.715","REV_AT_EPOCH":"9685","ELEMENT_SET_NO":"999","OBJECT_ID":"2021-044AL","RA_OF_ASC_NODE":"72.1072","PERIOD":"95.592"},{"TIME_SYSTEM":"UTC","BSTAR":"0.00026287000000","MEAN_ANOMALY":"282.1525","MEAN_MOTION":"15.06403054","EPOCH":"2023-02-19T18:51:50.726592","LAUNCH_DATE":"2021-05-26","ARG_OF_PERICENTER":"77.9596","RA_OF_ASC_NODE":"72.1235","PERIOD":"95.592","OBJECT_ID":"2021-044AM","MEAN_MOTION_DOT":"0.00003636","PERIAPSIS":"546.384","ELEMENT_SET_NO":"999","REV_AT_EPOCH":"9685","GP_ID":"226059098","MEAN_ELEMENT_THEORY":"SGP4","INCLINATION":"53.0537","OBJECT_NAME":"STARLINK-2711","OBJECT_TYPE":"PAYLOAD","TLE_LINE1":"1 48673U 21044AM  23050.78600378  .00003636  00000-0  26287-3 0  9994","TLE_LINE2":"2 48673  53.0537  72.1235 0001185  77.9596 282.1525 15.06403054 96852","DECAY_DATE":null,"SEMIMAJOR_AXIS":"6925.339","CLASSIFICATION_TYPE":"U","SITE":"AFETR","CENTER_NAME":"EARTH","COUNTRY_CODE":"US","MEAN_MOTION_DDOT":"0.0000000000000","EPHEMERIS_TYPE":"0","FILE":"3812001","RCS_SIZE":"LARGE","NORAD_CAT_ID":"48673","REF_FRAME":"TEME","APOAPSIS":"548.025","ECCENTRICITY":"0.00011850"},{"SEMIMAJOR_AXIS":"6925.284","CLASSIFICATION_TYPE":"U","SITE":"AFETR","CENTER_NAME":"EARTH","OBJECT_NAME":"STARLINK-2712","MEAN_ELEMENT_THEORY":"SGP4","INCLINATION":"53.0522","TLE_LINE1":"1 48674U 21044AN  23050.78135961  .00005173  00000-0  36572-3 0  9992","OBJECT_TYPE":"PAYLOAD","DECAY_DATE":null,"TLE_LINE2":"2 48674  53.0522  72.1454 0001909  86.8320 273.2887 15.06421103 96855","EPHEMERIS_TYPE":"0","NORAD_CAT_ID":"48674","REF_FRAME":"TEME","FILE":"3812001","RCS_SIZE":"LARGE","APOAPSIS":"548.471","ECCENTRICITY":"0.00019090","COUNTRY_CODE":"US","MEAN_MOTION_DDOT":"0.0000000000000","MEAN_MOTION":"15.06421103","LAUNCH_DATE":"2021-05-26","EPOCH":"2023-02-19T18:45:09.470304","ARG_OF_PERICENTER":"86.8320","TIME_SYSTEM":"UTC","MEAN_ANOMALY":"273.2887","BSTAR":"0.00036572000000","GP_ID":"226059590","RA_OF_ASC_NODE":"72.1454","PERIOD":"95.591","OBJECT_ID":"2021-044AN","PERIAPSIS":"545.827","REV_AT_EPOCH":"9685","ELEMENT_SET_NO":"999","MEAN_MOTION_DOT":"0.00005173"},{"MEAN_MOTION_DDOT":"0.0000000000000","COUNTRY_CODE":"US","NORAD_CAT_ID":"48675","REF_FRAME":"TEME","FILE":"3812005","RCS_SIZE":"LARGE","EPHEMERIS_TYPE":"0","ECCENTRICITY":"0.00013350","APOAPSIS":"548.129","OBJECT_NAME":"STARLINK-2737","INCLINATION":"53.0516","MEAN_ELEMENT_THEORY":"SGP4","DECAY_DATE":null,"TLE_LINE2":"2 48675  53.0516  72.1599 0001335  89.7104 270.4038 15.06403035 96798","TLE_LINE1":"1 48675U 21044AP  23050.77863001  .00001032  00000-0  88162-4 0  9998","OBJECT_TYPE":"PAYLOAD","CLASSIFICATION_TYPE":"U","SEMIMAJOR_AXIS":"6925.339","SITE":"AFETR","CENTER_NAME":"EARTH","OBJECT_ID":"2021-044AP","RA_OF_ASC_NODE":"72.1599","PERIOD":"95.592","PERIAPSIS":"546.280","ELEMENT_SET_NO":"999","REV_AT_EPOCH":"9679","MEAN_MOTION_DOT":"0.00001032","GP_ID":"226059162","TIME_SYSTEM":"UTC","MEAN_ANOMALY":"270.4038","BSTAR":"0.00008816200000","LAUNCH_DATE":"2021-05-26","EPOCH":"2023-02-19T18:41:13.632864","MEAN_MOTION":"15.06403035","ARG_OF_PERICENTER":"89.7104"},{"INCLINATION":"53.0537","MEAN_ELEMENT_THEORY":"SGP4","OBJECT_NAME":"STARLINK-2746","OBJECT_TYPE":"PAYLOAD","TLE_LINE1":"1 48676U 21044AQ  23050.44320907  .00013319  00000-0  91094-3 0  9994","TLE_LINE2":"2 48676  53.0537  73.6645 0001137  84.8332 275.2786 15.06417341 95909","DECAY_DATE":null,"SEMIMAJOR_AXIS":"6925.295","CLASSIFICATION_TYPE":"U","CENTER_NAME":"EARTH","SITE":"AFETR","COUNTRY_CODE":"US","MEAN_MOTION_DDOT":"0.0000000000000","EPHEMERIS_TYPE":"0","FILE":"3811610","RCS_SIZE":"LARGE","REF_FRAME":"TEME","NORAD_CAT_ID":"48676","APOAPSIS":"547.948","ECCENTRICITY":"0.00011370","TIME_SYSTEM":"UTC","BSTAR":"0.00091094000000","MEAN_ANOMALY":"275.2786","MEAN_MOTION":"15.06417341","EPOCH":"2023-02-19T10:38:13.263648","LAUNCH_DATE":"2021-05-26","ARG_OF_PERICENTER":"84.8332","PERIOD":"95.591","RA_OF_ASC_NODE":"73.6645","OBJECT_ID":"2021-044AQ","MEAN_MOTION_DOT":"0.00013319","ELEMENT_SET_NO":"999","PERIAPSIS":"546.373","REV_AT_EPOCH":"9590","GP_ID":"226046111"},{"CENTER_NAME":"EARTH","SITE":"AFETR","SEMIMAJOR_AXIS":"6925.359","CLASSIFICATION_TYPE":"U","TLE_LINE1":"1 48677U 21044AR  23050.77031673 -.00001121  00000-0 -56333-4 0  9998","OBJECT_TYPE":"PAYLOAD","DECAY_DATE":null,"TLE_LINE2":"2 48677  53.0506  72.1944 0002042  90.6596 269.4627 15.06396516 96792","OBJECT_NAME":"STARLINK-2719","INCLINATION":"53.0506","MEAN_ELEMENT_THEORY":"SGP4","APOAPSIS":"548.638","ECCENTRICITY":"0.00020420","EPHEMERIS_TYPE":"0","REF_FRAME":"TEME","NORAD_CAT_ID":"48677","FILE":"3813058","RCS_SIZE":"LARGE","COUNTRY_CODE":"US","MEAN_MOTION_DDOT":"0.0000000000000","ARG_OF_PERICENTER":"90.6596","MEAN_MOTION":"15.06396516","LAUNCH_DATE":"2021-05-26","EPOCH":"2023-02-19T18:29:15.365472","MEAN_ANOMALY":"269.4627","BSTAR":"-0.00005633300000","TIME_SYSTEM":"UTC","GP_ID":"226079468","ELEMENT_SET_NO":"999","PERIAPSIS":"545.810","REV_AT_EPOCH":"9679","MEAN_MOTION_DOT":"-0.00001121","RA_OF_ASC_NODE":"72.1944","PERIOD":"95.592","OBJECT_ID":"2021-044AR"},{"MEAN_MOTION_DOT":"-0.00028396","PERIAPSIS":"546.333","REV_AT_EPOCH":"9679","ELEMENT_SET_NO":"999","OBJECT_ID":"2021-044AS","PERIOD":"95.593","RA_OF_ASC_NODE":"72.2080","GP_ID":"226059780","BSTAR":"-0.00189560000000","MEAN_ANOMALY":"257.8705","TIME_SYSTEM":"UTC","ARG_OF_PERICENTER":"102.2432","EPOCH":"2023-02-19T18:25:14.953152","LAUNCH_DATE":"2021-05-26","MEAN_MOTION":"15.06389251","MEAN_MOTION_DDOT":"0.0000000000000","COUNTRY_CODE":"US","ECCENTRICITY":"0.00013190","APOAPSIS":"548.160","RCS_SIZE":"LARGE","FILE":"3812015","NORAD_CAT_ID":"48678","REF_FRAME":"TEME","EPHEMERIS_TYPE":"0","TLE_LINE2":"2 48678  53.0518  72.2080 0001319 102.2432 257.8705 15.06389251 96799","DECAY_DATE":null,"OBJECT_TYPE":"PAYLOAD","TLE_LINE1":"1 48678U 21044AS  23050.76753418 -.00028396  00000-0 -18956-2 0  9996","INCLINATION":"53.0518","MEAN_ELEMENT_THEORY":"SGP4","OBJECT_NAME":"STARLINK-2615","SITE":"AFETR","CENTER_NAME":"EARTH","CLASSIFICATION_TYPE":"U","SEMIMAJOR_AXIS":"6925.382"},{"EPHEMERIS_TYPE":"0","REF_FRAME":"TEME","NORAD_CAT_ID":"48679","RCS_SIZE":"LARGE","FILE":"3812017","APOAPSIS":"548.268","ECCENTRICITY":"0.00016070","COUNTRY_CODE":"US","MEAN_MOTION_DDOT":"0.0000000000000","SEMIMAJOR_AXIS":"6925.290","CLASSIFICATION_TYPE":"U","CENTER_NAME":"EARTH","SITE":"AFETR","OBJECT_NAME":"STARLINK-2648","MEAN_ELEMENT_THEORY":"SGP4","INCLINATION":"53.0531","OBJECT_TYPE":"PAYLOAD","TLE_LINE1":"1 48679U 21044AT  23050.76386864  .00001177  00000-0  97826-4 0  9995","DECAY_DATE":null,"TLE_LINE2":"2 48679  53.0531  72.2324 0001607  82.7794 277.3377 15.06419218 96798","GP_ID":"226059319","RA_OF_ASC_NODE":"72.2324","PERIOD":"95.591","OBJECT_ID":"2021-044AT","PERIAPSIS":"546.042","ELEMENT_SET_NO":"999","REV_AT_EPOCH":"9679","MEAN_MOTION_DOT":"0.00001177","MEAN_MOTION":"15.06419218","LAUNCH_DATE":"2021-05-26","EPOCH":"2023-02-19T18:19:58.250496","ARG_OF_PERICENTER":"82.7794","TIME_SYSTEM":"UTC","MEAN_ANOMALY":"277.3377","BSTAR":"0.00009782600000"},{"COUNTRY_CODE":"US","MEAN_MOTION_DDOT":"0.0000000000000","APOAPSIS":"548.970","ECCENTRICITY":"0.00024950","EPHEMERIS_TYPE":"0","RCS_SIZE":"LARGE","FILE":"3812021","REF_FRAME":"TEME","NORAD_CAT_ID":"48680","TLE_LINE1":"1 48680U 21044AU  23050.76021824  .00015251  00000-0  10408-2 0  9996","OBJECT_TYPE":"PAYLOAD","TLE_LINE2":"2 48680  53.0536  72.2415 0002495  82.1650 277.9622 15.06390808 96856","DECAY_DATE":null,"INCLINATION":"53.0536","MEAN_ELEMENT_THEORY":"SGP4","OBJECT_NAME":"STARLINK-2649","SITE":"AFETR","CENTER_NAME":"EARTH","SEMIMAJOR_AXIS":"6925.377","CLASSIFICATION_TYPE":"U","MEAN_MOTION_DOT":"0.00015251","PERIAPSIS":"545.514","ELEMENT_SET_NO":"999","REV_AT_EPOCH":"9685","RA_OF_ASC_NODE":"72.2415","PERIOD":"95.593","OBJECT_ID":"2021-044AU","GP_ID":"226059882","BSTAR":"0.00104080000000","MEAN_ANOMALY":"277.9622","TIME_SYSTEM":"UTC","ARG_OF_PERICENTER":"82.1650","MEAN_MOTION":"15.06390808","EPOCH":"2023-02-19T18:14:42.855936","LAUNCH_DATE":"2021-05-26"}];
